0 IRIDIUM 33 DEB
1 34153U 97051EG  13281.47028148  .00018995  00000-0  27211-2 0  4641
2 34153 086.2957 085.5552 0053784 323.9751 087.6577 14.75469108247224
0 IRIDIUM 33 DEB
1 34153U 97051EG  13281.95802840  .00040071  00000-0  57233-2 0  4651
2 34153 086.2957 085.3313 0053822 322.2940 158.4179 14.75500061247298
0 IRIDIUM 33 DEB
1 34153U 97051EG  13282.97613515  .00032491  00000-0  46370-2 0  4661
2 34153 086.2952 084.8642 0053858 318.5955 166.6954 14.75570618247449
0 IRIDIUM 33 DEB
1 34153U 97051EG  13285.47130525  .00027190  00000-0  38726-2 0  4671
2 34153 086.2943 083.7181 0053539 309.9056 101.7520 14.75693494247815
0 IRIDIUM 33 DEB
1 34153U 97051EG  13286.91430875  .00027581  00000-0  39211-2 0  4687
2 34153 086.2942 083.0549 0053706 304.6770 208.1085 14.75763642248021
0 IRIDIUM 33 DEB
1 34153U 97051EG  13288.38256749  .00047358  00000-0  66999-2 0  4694
2 34153 086.2947 082.3805 0053801 299.4660 088.9635 14.75867816248245
0 IRIDIUM 33 DEB
1 34153U 97051EG  13289.39968519  .00042659  00000-0  60284-2 0  4703
2 34153 086.2944 081.9130 0053809 295.8848 093.2338 14.75940059248390
0 IRIDIUM 33 DEB
1 34153U 97051EG  13289.89156241  .00040719  00000-0  57516-2 0  4719
2 34153 086.2947 081.6869 0053844 294.1471 186.8307 14.75968590248465
0 IRIDIUM 33 DEB
1 34153U 97051EG  13290.90899264  .00036468  00000-0  51446-2 0  4725
2 34153 086.2938 081.2187 0053801 290.6027 193.0829 14.76045968248617
0 IRIDIUM 33 DEB
1 34153U 97051EG  13291.92539065  .00035061  00000-0  49382-2 0  4733
2 34153 086.2937 080.7511 0053923 287.0809 194.1037 14.76116463248762
0 IRIDIUM 33 DEB
1 34153U 97051EG  13293.13276571  .00039175  00000-0  55052-2 0  4740
2 34153 086.2952 080.1971 0053814 282.8447 130.3494 14.76195854248943
0 IRIDIUM 33 DEB
1 34153U 97051EG  13294.15072911  .00045645  00000-0  63986-2 0  4750
2 34153 086.2951 079.7292 0053835 279.3334 140.2408 14.76265582249099
0 IRIDIUM 33 DEB
1 34153U 97051EG  13295.43841425  .00051488  00000-0  71960-2 0  4760
2 34153 086.2953 079.1376 0053809 274.8905 143.9289 14.76362673249280
